ONEWEB-0685             
1 54679U 22166AP  25342.26160329  .00000177  00000+0  39741-3 0  9994
2 54679  87.9214 282.0711 0001738  89.5384 270.5949 13.21834169146196
ONEWEB-0712             
1 54680U 22166AQ  25342.30765020  .00000121  00000+0  28175-3 0  9998
2 54680  87.9042 266.7788 0002295  78.7288 281.4101 13.16594914146941
ONEWEB-0714             
1 54681U 22166AR  25342.26768185  .00000175  00000+0  39234-3 0  9996
2 54681  87.9214 282.0640 0001889  82.6228 277.5121 13.21829040146313
ONEWEB-0532             
1 55140U 23004A   25342.20575136  .00000064  00000+0  13090-3 0  9994
2 55140  87.9125  43.8350 0001451 111.6778 248.4509 13.17649879142435
ONEWEB-0533             
1 55141U 23004B   25342.17838495 -.00000060  00000+0 -20276-3 0  9993
2 55141  87.8945  28.6088 0001899 103.1443 256.9897 13.12444783143005
ONEWEB-0541             
1 55142U 23004C   25342.21147764  .00000634  00000+0  17517-2 0  9999
2 55142  87.8863  59.0780 0001523 100.8111 259.3188 13.11418487140910
ONEWEB-0543             
1 55143U 23004D   25342.33442672  .00000091  00000+0  19907-3 0  9992
2 55143  87.9164  13.4018 0002059  92.3948 267.7420 13.18685843144546
ONEWEB-0544             
1 55144U 23004E   25342.32782100  .00000093  00000+0  20260-3 0  9991
2 55144  87.9169  13.3933 0001792  87.2252 272.9086 13.18688544144548
